{
  "type": "FeatureCollection",
  "features": [
    {
      "type": "Feature",
      "properties": {
        "norad_id": 66891,
        "name": "STARLINK-35855",
        "group": "last-30-days",
        "lat": 24.651230018082813,
        "lon": 76.66497754635557,
        "alt_km": 305.4877281017598,
        "timestamp": "2025-12-16T03:53:25.817863+00:00",
        "meta_object_name": "STARLINK-35855",
        "meta_object_id": "2025-283P",
        "meta_epoch": "2025-12-15T06:36:56.525472",
        "meta_mean_motion": 15.8875485,
        "meta_eccentricity": 6.224e-05,
        "meta_inclination": 53.1552,
        "meta_ra_of_asc_node": 61.0293,
        "meta_arg_of_pericenter": 59.6533,
        "meta_mean_anomaly": 300.4554,
        "meta_ephemeris_type": 0,
        "meta_classification_type": "U",
        "meta_norad_cat_id": 66891,
        "meta_element_set_no": 999,
        "meta_rev_at_epoch": 285,
        "meta_bstar": -0.0020542843,
        "meta_mean_motion_dot": -0.00557409,
        "meta_mean_motion_ddot": 0,
        "tle_line1": "1 66891U 25283P   25349.27565423 -.00557409  00000+0 -20543-2 0  9994",
        "tle_line2": "2 66891  53.1552  61.0293 0000622  59.6533 300.4554 15.88754850  2852"
      },
      "geometry": {
        "type": "Point",
        "coordinates": [
          76.66497754635557,
          24.651230018082813
        ]
      }
    },
    {
      "type": "Feature",
      "properties": {
        "norad_id": 66892,
        "name": "STARLINK-35883",
        "group": "last-30-days",
        "lat": 26.821054616691374,
        "lon": 78.8094469593382,
        "alt_km": 304.874218742455,
        "timestamp": "2025-12-16T03:53:25.818047+00:00",
        "meta_object_name": "STARLINK-35883",
        "meta_object_id": "2025-283Q",
        "meta_epoch": "2025-12-15T06:36:17.544384",
        "meta_mean_motion": 15.88804638,
        "meta_eccentricity": 0.00011359,
        "meta_inclination": 53.1552,
        "meta_ra_of_asc_node": 61.0254,
        "meta_arg_of_pericenter": 109.7497,
        "meta_mean_anomaly": 250.3651,
        "meta_ephemeris_type": 0,
        "meta_classification_type": "U",
        "meta_norad_cat_id": 66892,
        "meta_element_set_no": 999,
        "meta_rev_at_epoch": 285,
        "meta_bstar": -0.0018355853,
        "meta_mean_motion_dot": -0.00502513,
        "meta_mean_motion_ddot": 0,
        "tle_line1": "1 66892U 25283Q   25349.27520306 -.00502513  00000+0 -18356-2 0  9991",
        "tle_line2": "2 66892  53.1552  61.0254 0001135 109.7497 250.3651 15.88804638  2857"
      },
      "geometry": {
        "type": "Point",
        "coordinates": [
          78.8094469593382,
          26.821054616691374
        ]
      }
    },
    {
      "type": "Feature",
      "properties": {
        "norad_id": 66893,
        "name": "STARLINK-36033",
        "group": "last-30-days",
        "lat": 28.583533944368266,
        "lon": 80.63997365698462,
        "alt_km": 304.63196386302207,
        "timestamp": "2025-12-16T03:53:25.818062+00:00",
        "meta_object_name": "STARLINK-36033",
        "meta_object_id": "2025-283R",
        "meta_epoch": "2025-12-15T08:06:16.320096",
        "meta_mean_motion": 15.88678821,
        "meta_eccentricity": 1.291e-05,
        "meta_inclination": 53.1549,
        "meta_ra_of_asc_node": 60.7041,
        "meta_arg_of_pericenter": 315.894,
        "meta_mean_anomaly": 44.2076,
        "meta_ephemeris_type": 0,
        "meta_classification_type": "U",
        "meta_norad_cat_id": 66893,
        "meta_element_set_no": 999,
        "meta_rev_at_epoch": 286,
        "meta_bstar": -0.0015895911,
        "meta_mean_motion_dot": -0.00435627,
        "meta_mean_motion_ddot": 0,
        "tle_line1": "1 66893U 25283R   25349.33768889 -.00435627  00000+0 -15896-2 0  9996",
        "tle_line2": "2 66893  53.1549  60.7041 0000129 315.8940  44.2076 15.88678821  2864"
      },
      "geometry": {
        "type": "Point",
        "coordinates": [
          80.63997365698462,
          28.583533944368266
        ]
      }
    },
    {
      "type": "Feature",
      "properties": {
        "norad_id": 66894,
        "name": "STARLINK-35718",
        "group": "last-30-days",
        "lat": 30.78991947728701,
        "lon": 83.05985492325748,
        "alt_km": 304.22084407362945,
        "timestamp": "2025-12-16T03:53:25.818074+00:00",
        "meta_object_name": "STARLINK-35718",
        "meta_object_id": "2025-283S",
        "meta_epoch": "2025-12-15T08:05:30.087456",
        "meta_mean_motion": 15.88686471,
        "meta_eccentricity": 3.603e-05,
        "meta_inclination": 53.1552,
        "meta_ra_of_asc_node": 60.7008,
        "meta_arg_of_pericenter": 334.2513,
        "meta_mean_anomaly": 25.8495,
        "meta_ephemeris_type": 0,
        "meta_classification_type": "U",
        "meta_norad_cat_id": 66894,
        "meta_element_set_no": 999,
        "meta_rev_at_epoch": 286,
        "meta_bstar": -0.0016435462,
        "meta_mean_motion_dot": -0.00449872,
        "meta_mean_motion_ddot": 0,
        "tle_line1": "1 66894U 25283S   25349.33715379 -.00449872  00000+0 -16435-2 0  9990",
        "tle_line2": "2 66894  53.1552  60.7008 0000360 334.2513  25.8495 15.88686471  2860"
      },
      "geometry": {
        "type": "Point",
        "coordinates": [
          83.05985492325748,
          30.78991947728701
        ]
      }
    },
    {
      "type": "Feature",
      "properties": {
        "norad_id": 66895,
        "name": "STARLINK-35971",
        "group": "last-30-days",
        "lat": 34.487555216975906,
        "lon": 87.51398029563437,
        "alt_km": 303.5510962127537,
        "timestamp": "2025-12-16T03:53:25.818085+00:00",
        "meta_object_name": "STARLINK-35971",
        "meta_object_id": "2025-283T",
        "meta_epoch": "2025-12-15T08:04:11.186112",
        "meta_mean_motion": 15.887143,
        "meta_eccentricity": 2.368e-05,
        "meta_inclination": 53.1546,
        "meta_ra_of_asc_node": 60.6934,
        "meta_arg_of_pericenter": 32.3066,
        "meta_mean_anomaly": 327.7975,
        "meta_ephemeris_type": 0,
        "meta_classification_type": "U",
        "meta_norad_cat_id": 66895,
        "meta_element_set_no": 999,
        "meta_rev_at_epoch": 286,
        "meta_bstar": -0.0016987345,
        "meta_mean_motion_dot": -0.00464821,
        "meta_mean_motion_ddot": 0,
        "tle_line1": "1 66895U 25283T   25349.33624058 -.00464821  00000+0 -16987-2 0  9997",
        "tle_line2": "2 66895  53.1546  60.6934 0000236  32.3066 327.7975 15.88714300  2862"
      },
      "geometry": {
        "type": "Point",
        "coordinates": [
          87.51398029563437,
          34.487555216975906
        ]
      }
    },
    {
      "type": "Feature",
      "properties": {
        "norad_id": 66896,
        "name": "STARLINK-35791",
        "group": "last-30-days",
        "lat": 32.72882978382758,
        "lon": 85.32520598397704,
        "alt_km": 303.7366489612823,
        "timestamp": "2025-12-16T03:53:25.818095+00:00",
        "meta_object_name": "STARLINK-35791",
        "meta_object_id": "2025-283U",
        "meta_epoch": "2025-12-15T08:04:48.714816",
        "meta_mean_motion": 15.88687597,
        "meta_eccentricity": 4.129e-05,
        "meta_inclination": 53.1548,
        "meta_ra_of_asc_node": 60.6966,
        "meta_arg_of_pericenter": 30.6407,
        "meta_mean_anomaly": 329.4643,
        "meta_ephemeris_type": 0,
        "meta_classification_type": "U",
        "meta_norad_cat_id": 66896,
        "meta_element_set_no": 999,
        "meta_rev_at_epoch": 286,
        "meta_bstar": -0.0016576254,
        "meta_mean_motion_dot": -0.00453565,
        "meta_mean_motion_ddot": 0,
        "tle_line1": "1 66896U 25283U   25349.33667494 -.00453565  00000+0 -16576-2 0  9996",
        "tle_line2": "2 66896  53.1548  60.6966 0000412  30.6407 329.4643 15.88687597  2864"
      },
      "geometry": {
        "type": "Point",
        "coordinates": [
          85.32520598397704,
          32.72882978382758
        ]
      }
    },
    {
      "type": "Feature",
      "properties": {
        "norad_id": 66897,
        "name": "STARLINK-36079",
        "group": "last-30-days",
        "lat": 36.45752675707717,
        "lon": 90.14475723618574,
        "alt_km": 303.3739939416182,
        "timestamp": "2025-12-16T03:53:25.818105+00:00",
        "meta_object_name": "STARLINK-36079",
        "meta_object_id": "2025-283V",
        "meta_epoch": "2025-12-15T08:03:28.135584",
        "meta_mean_motion": 15.88733906,
        "meta_eccentricity": 3.099e-05,
        "meta_inclination": 53.1549,
        "meta_ra_of_asc_node": 60.6905,
        "meta_arg_of_pericenter": 314.4103,
        "meta_mean_anomaly": 45.6898,
        "meta_ephemeris_type": 0,
        "meta_classification_type": "U",
        "meta_norad_cat_id": 66897,
        "meta_element_set_no": 999,
        "meta_rev_at_epoch": 286,
        "meta_bstar": -0.0016941017,
        "meta_mean_motion_dot": -0.00464059,
        "meta_mean_motion_ddot": 0,
        "tle_line1": "1 66897U 25283V   25349.33574231 -.00464059  00000+0 -16941-2 0  9999",
        "tle_line2": "2 66897  53.1549  60.6905 0000309 314.4103  45.6898 15.88733906  2865"
      },
      "geometry": {
        "type": "Point",
        "coordinates": [
          90.14475723618574,
          36.45752675707717
        ]
      }
    }
  ]
}